{"type":"FeatureCollection","features":[
{"type":"Feature","properties":{"numero":"0181","section":"AL"},"geometry":{"type":"MultiPolygon","coordinates":[[[[2.18447079,48.75783854],[2.18412262,48.75784147],[2.18420928,48.75805901],[2.18426656,48.7580585],[2.18436533,48.7580581],[2.1844783,48.75805464],[2.18447079,48.75783854]]]]}},
{"type":"Feature","properties":{"numero":"0183","section":"AL"},"geometry":{"type":"MultiPolygon","coordinates":[[[[2.18447897,48.758081],[2.1843452,48.75808413],[2.18425836,48.75808696],[2.18422083,48.75808598],[2.18404556,48.75808946],[2.18430868,48.75822743],[2.1843192,48.75823317],[2.18438937,48.75826963],[2.18445108,48.75822067],[2.18448251,48.75816845],[2.18447897,48.758081]]]]}},
{"type":"Feature","properties":{"numero":"0186","section":"AL"},"geometry":{"type":"MultiPolygon","coordinates":[[[[2.18427939,48.75836071],[2.18401507,48.75822084],[2.18395771,48.75822684],[2.18387457,48.7582975],[2.18401044,48.75836904],[2.18411758,48.75842554],[2.18417022,48.75845216],[2.18427939,48.75836071]]]]}},
{"type":"Feature","properties":{"numero":"0106","section":"AL"},"geometry":{"type":"MultiPolygon","coordinates":[[[[2.18473833,48.758434],[2.18448798,48.75830583],[2.18438058,48.75839711],[2.18455116,48.75848516],[2.1846097,48.75851704],[2.18466976,48.75854749],[2.18473833,48.758434]]]]}},
{"type":"Feature","properties":{"numero":"0107","section":"AL"},"geometry":{"type":"MultiPolygon","coordinates":[[[[2.18482422,48.75830912],[2.18461642,48.75819967],[2.18448798,48.75830583],[2.18473833,48.758434],[2.18482422,48.75830912]]]]}},
{"type":"Feature","properties":{"numero":"0118","section":"AL"},"geometry":{"type":"MultiPolygon","coordinates":[[[[2.18485191,48.75788603],[2.18479173,48.7578544],[2.18476297,48.75784027],[2.18467568,48.75779371],[2.1846607,48.7577865],[2.18465559,48.75779087],[2.18458116,48.75779243],[2.18458215,48.75783354],[2.18458694,48.75790967],[2.18459199,48.75807412],[2.18461649,48.7580823],[2.18473075,48.75798711],[2.1848231,48.75791002],[2.18485191,48.75788603]]]]}},
{"type":"Feature","properties":{"numero":"0182","section":"AL"},"geometry":{"type":"MultiPolygon","coordinates":[[[[2.1844783,48.75805464],[2.18436533,48.7580581],[2.18426656,48.7580585],[2.18420928,48.75805901],[2.18422083,48.75808598],[2.18425836,48.75808696],[2.1843452,48.75808413],[2.18447897,48.758081],[2.1844783,48.75805464]]]]}},
{"type":"Feature","properties":{"numero":"0187","section":"AL"},"geometry":{"type":"MultiPolygon","coordinates":[[[[2.18387457,48.7582975],[2.18350394,48.75810114],[2.18346948,48.75821711],[2.18390979,48.75845524],[2.1840145,48.75850965],[2.18406686,48.75853735],[2.18417022,48.75845216],[2.18411758,48.75842554],[2.18401044,48.75836904],[2.18387457,48.7582975]]]]}},
{"type":"Feature","properties":{"numero":"0268","section":"AL"},"geometry":{"type":"MultiPolygon","coordinates":[[[[2.18406686,48.75853735],[2.1840145,48.75850965],[2.18390979,48.75845524],[2.18346948,48.75821711],[2.18343085,48.75833],[2.18382307,48.75853757],[2.18385748,48.75855553],[2.18391376,48.75858415],[2.18397571,48.75861588],[2.18406686,48.75853735]],[[2.18387004,48.75855274],[2.18388631,48.75853882],[2.18393375,48.75849767],[2.18400096,48.75853168],[2.18393548,48.75858727],[2.18387004,48.75855274]]]]}},
{"type":"Feature","properties":{"numero":"0269","section":"AL"},"geometry":{"type":"MultiPolygon","coordinates":[[[[2.18397571,48.75861588],[2.18391376,48.75858415],[2.18385748,48.75855553],[2.18382307,48.75853757],[2.18343085,48.75833],[2.18339442,48.75843265],[2.18371837,48.75860396],[2.18372807,48.75860987],[2.18382388,48.75865945],[2.18388515,48.75869117],[2.18397571,48.75861588]]]]}},
{"type":"Feature","properties":{"numero":"0275","section":"AL"},"geometry":{"type":"MultiPolygon","coordinates":[[[[2.18438937,48.75826963],[2.1843192,48.75823317],[2.18430868,48.75822743],[2.18404556,48.75808946],[2.18350394,48.75810114],[2.18387457,48.7582975],[2.18395771,48.75822684],[2.18401507,48.75822084],[2.18427939,48.75836071],[2.18430874,48.75833672],[2.18438937,48.75826963]]]]}},
{"type":"Feature","properties":{"numero":"0277","section":"AL"},"geometry":{"type":"MultiPolygon","coordinates":[[[[2.18511027,48.75810231],[2.18502607,48.75805811],[2.18498746,48.75803905],[2.18492594,48.75800634],[2.18487872,48.75798128],[2.18461642,48.75819967],[2.18482422,48.75830912],[2.18492523,48.75820889],[2.1849745,48.75817199],[2.18500942,48.75814902],[2.18511027,48.75810231]]]]}}
]}
